KUIPER-00215            
1 67779U 26030R   26201.64235175  .00001724  00000+0  25532-3 0  9994
2 67779  51.9011 322.6394 0000474 103.3420 256.7595 14.79887086 25185
KUIPER-00218            
1 67780U 26030S   26201.65993569  .00001520  00000+0  22820-3 0  9996
2 67780  51.8995 337.6043 0000412 148.7269 211.3718 14.79951493 24974
KUIPER-00220            
1 67781U 26030T   26201.34927035  .00001702  00000+0  25234-3 0  9992
2 67781  51.8973 314.0160 0000994  65.8708 294.2358 14.79923271 25279
KUIPER-00222            
1 67782U 26030U   26201.36149943  .00001417  00000+0  21482-3 0  9993
2 67782  51.9006 334.0804 0000341  80.6397 279.4604 14.79928179 24999
KUIPER-00223            
1 67783U 26030V   26201.60592097  .00001739  00000+0  25705-3 0  9992
2 67783  51.9030 325.2951 0000457 122.0937 238.0070 14.79932508 25148
KUIPER-00225            
1 67784U 26030W   26202.07325048  .00001945  00000+0  28406-3 0  9995
2 67784  51.9003 328.3908 0000476 117.9765 242.1245 14.79938193 25133
KUIPER-00226            
1 67785U 26030X   26202.00030359  .00001212  00000+0  20333-3 0  9995
2 67785  51.9021 314.8504 0003465 171.9226 188.1792 14.76422219 25320
KUIPER-00259            
1 67786U 26030Y   26202.03943853 -.00003009  00000+0 -36573-3 0  9992
2 67786  51.8993 328.4425 0000733 280.7876  79.3004 14.79952712 25131
KUIPER-00260            
1 67787U 26030Z   26200.08382048 -.00001888  00000+0 -21867-3 0  9992
2 67787  51.9034 334.6868 0000570 122.7989 237.3029 14.79940996 24782
KUIPER-00262            
1 67788U 26030AA  26202.07593824  .00001991  00000+0  29008-3 0  9998
2 67788  51.9029 325.7955 0000698 177.9757 182.1209 14.79937192 25176
KUIPER-00266            
1 67789U 26030AB  26201.36953917  .00001228  00000+0  19008-3 0  9995
2 67789  51.9004 326.4156 0002413 193.8907 166.1990 14.79946138 25104
KUIPER-00268            
1 67790U 26030AC  26201.33850375  .00000313  00000+0  69967-4 0  9992
2 67790  51.9045 324.0696 0000495 124.8016 235.2993 14.79950435 25136
KUIPER-00270            
1 67791U 26030AD  26201.99094788  .00002092  00000+0  30404-3 0  9992
2 67791  51.9003 311.1679 0000836 101.8900 258.2156 14.79825078 25371
KUIPER-00274            
1 67792U 26030AE  26202.10161139  .00002287  00000+0  32881-3 0  9999
2 67792  51.9040 333.1741 0000368 177.0020 183.0945 14.79939766 25073
KUIPER-00275            
1 67793U 26030AF  26201.31282762  .00001727  00000+0  25546-3 0  9996
2 67793  51.9014 316.6696 0000439 142.9136 217.1857 14.79940057 25232
KUIPER-00276            
1 67794U 26030AG  26201.34117230  .00001732  00000+0  25610-3 0  9995
2 67794  51.9006 321.5270 0002188 159.5268 200.5782 14.79947327 25173
