{"fetched_at":"2026-07-21T17:53:03.255Z","source":"https://celestrak.org/NORAD/elements/gp.php?GROUP=kuiper&FORMAT=JSON","constellation":"kuiper","records":[{"OBJECT_NAME":"KUIPER-00215","OBJECT_ID":"2026-030R","EPOCH":"2026-07-20T15:24:59.191200","CLASSIFICATION_TYPE":"U","MEAN_MOTION":14.79887086,"ECCENTRICITY":0.00004748,"INCLINATION":51.9011,"RA_OF_ASC_NODE":322.6394,"ARG_OF_PERICENTER":103.342,"MEAN_ANOMALY":256.7595,"EPHEMERIS_TYPE":0,"NORAD_CAT_ID":67779,"ELEMENT_SET_NO":999,"REV_AT_EPOCH":2518,"BSTAR":0.00025532184,"MEAN_MOTION_DOT":0.00001724,"MEAN_MOTION_DDOT":0},{"OBJECT_NAME":"KUIPER-00218","OBJECT_ID":"2026-030S","EPOCH":"2026-07-20T15:50:18.443616","CLASSIFICATION_TYPE":"U","MEAN_MOTION":14.79951493,"ECCENTRICITY":0.00004123,"INCLINATION":51.8995,"RA_OF_ASC_NODE":337.6043,"ARG_OF_PERICENTER":148.7269,"MEAN_ANOMALY":211.3718,"EPHEMERIS_TYPE":0,"NORAD_CAT_ID":67780,"ELEMENT_SET_NO":999,"REV_AT_EPOCH":2497,"BSTAR":0.00022819659,"MEAN_MOTION_DOT":0.0000152,"MEAN_MOTION_DDOT":0},{"OBJECT_NAME":"KUIPER-00220","OBJECT_ID":"2026-030T","EPOCH":"2026-07-20T08:22:56.958240","CLASSIFICATION_TYPE":"U","MEAN_MOTION":14.79923271,"ECCENTRICITY":0.0000994,"INCLINATION":51.8973,"RA_OF_ASC_NODE":314.016,"ARG_OF_PERICENTER":65.8708,"MEAN_ANOMALY":294.2358,"EPHEMERIS_TYPE":0,"NORAD_CAT_ID":67781,"ELEMENT_SET_NO":999,"REV_AT_EPOCH":2527,"BSTAR":0.00025233709,"MEAN_MOTION_DOT":0.00001702,"MEAN_MOTION_DDOT":0},{"OBJECT_NAME":"KUIPER-00222","OBJECT_ID":"2026-030U","EPOCH":"2026-07-20T08:40:33.550752","CLASSIFICATION_TYPE":"U","MEAN_MOTION":14.79928179,"ECCENTRICITY":0.00003415,"INCLINATION":51.9006,"RA_OF_ASC_NODE":334.0804,"ARG_OF_PERICENTER":80.6397,"MEAN_ANOMALY":279.4604,"EPHEMERIS_TYPE":0,"NORAD_CAT_ID":67782,"ELEMENT_SET_NO":999,"REV_AT_EPOCH":2499,"BSTAR":0.00021481718,"MEAN_MOTION_DOT":0.00001417,"MEAN_MOTION_DDOT":0},{"OBJECT_NAME":"KUIPER-00223","OBJECT_ID":"2026-030V","EPOCH":"2026-07-20T14:32:31.571808","CLASSIFICATION_TYPE":"U","MEAN_MOTION":14.79932508,"ECCENTRICITY":0.0000457,"INCLINATION":51.903,"RA_OF_ASC_NODE":325.2951,"ARG_OF_PERICENTER":122.0937,"MEAN_ANOMALY":238.007,"EPHEMERIS_TYPE":0,"NORAD_CAT_ID":67783,"ELEMENT_SET_NO":999,"REV_AT_EPOCH":2514,"BSTAR":0.00025705,"MEAN_MOTION_DOT":0.00001739,"MEAN_MOTION_DDOT":0},{"OBJECT_NAME":"KUIPER-00225","OBJECT_ID":"2026-030W","EPOCH":"2026-07-21T01:45:28.841472","CLASSIFICATION_TYPE":"U","MEAN_MOTION":14.79938193,"ECCENTRICITY":0.00004769,"INCLINATION":51.9003,"RA_OF_ASC_NODE":328.3908,"ARG_OF_PERICENTER":117.9765,"MEAN_ANOMALY":242.1245,"EPHEMERIS_TYPE":0,"NORAD_CAT_ID":67784,"ELEMENT_SET_NO":999,"REV_AT_EPOCH":2513,"BSTAR":0.0002840587,"MEAN_MOTION_DOT":0.00001945,"MEAN_MOTION_DDOT":0},{"OBJECT_NAME":"KUIPER-00226","OBJECT_ID":"2026-030X","EPOCH":"2026-07-21T00:00:26.230176","CLASSIFICATION_TYPE":"U","MEAN_MOTION":14.76422219,"ECCENTRICITY":0.00034654,"INCLINATION":51.9021,"RA_OF_ASC_NODE":314.8504,"ARG_OF_PERICENTER":171.9226,"MEAN_ANOMALY":188.1792,"EPHEMERIS_TYPE":0,"NORAD_CAT_ID":67785,"ELEMENT_SET_NO":999,"REV_AT_EPOCH":2532,"BSTAR":0.00020332642,"MEAN_MOTION_DOT":0.00001212,"MEAN_MOTION_DDOT":0},{"OBJECT_NAME":"KUIPER-00259","OBJECT_ID":"2026-030Y","EPOCH":"2026-07-21T00:56:47.488992","CLASSIFICATION_TYPE":"U","MEAN_MOTION":14.79952712,"ECCENTRICITY":0.00007339,"INCLINATION":51.8993,"RA_OF_ASC_NODE":328.4425,"ARG_OF_PERICENTER":280.7876,"MEAN_ANOMALY":79.3004,"EPHEMERIS_TYPE":0,"NORAD_CAT_ID":67786,"ELEMENT_SET_NO":999,"REV_AT_EPOCH":2513,"BSTAR":-0.00036573476,"MEAN_MOTION_DOT":-0.00003009,"MEAN_MOTION_DDOT":0},{"OBJECT_NAME":"KUIPER-00260","OBJECT_ID":"2026-030Z","EPOCH":"2026-07-19T02:00:42.089472","CLASSIFICATION_TYPE":"U","MEAN_MOTION":14.79940996,"ECCENTRICITY":0.00005707,"INCLINATION":51.9034,"RA_OF_ASC_NODE":334.6868,"ARG_OF_PERICENTER":122.7989,"MEAN_ANOMALY":237.3029,"EPHEMERIS_TYPE":0,"NORAD_CAT_ID":67787,"ELEMENT_SET_NO":999,"REV_AT_EPOCH":2478,"BSTAR":-0.00021867261,"MEAN_MOTION_DOT":-0.00001888,"MEAN_MOTION_DDOT":0},{"OBJECT_NAME":"KUIPER-00262","OBJECT_ID":"2026-030AA","EPOCH":"2026-07-21T01:49:21.063936","CLASSIFICATION_TYPE":"U","MEAN_MOTION":14.79937192,"ECCENTRICITY":0.00006988,"INCLINATION":51.9029,"RA_OF_ASC_NODE":325.7955,"ARG_OF_PERICENTER":177.9757,"MEAN_ANOMALY":182.1209,"EPHEMERIS_TYPE":0,"NORAD_CAT_ID":67788,"ELEMENT_SET_NO":999,"REV_AT_EPOCH":2517,"BSTAR":0.00029007662,"MEAN_MOTION_DOT":0.00001991,"MEAN_MOTION_DDOT":0},{"OBJECT_NAME":"KUIPER-00266","OBJECT_ID":"2026-030AB","EPOCH":"2026-07-20T08:52:08.184288","CLASSIFICATION_TYPE":"U","MEAN_MOTION":14.79946138,"ECCENTRICITY":0.00024135,"INCLINATION":51.9004,"RA_OF_ASC_NODE":326.4156,"ARG_OF_PERICENTER":193.8907,"MEAN_ANOMALY":166.199,"EPHEMERIS_TYPE":0,"NORAD_CAT_ID":67789,"ELEMENT_SET_NO":999,"REV_AT_EPOCH":2510,"BSTAR":0.00019007667,"MEAN_MOTION_DOT":0.00001228,"MEAN_MOTION_DDOT":0},{"OBJECT_NAME":"KUIPER-00268","OBJECT_ID":"2026-030AC","EPOCH":"2026-07-20T08:07:26.724000","CLASSIFICATION_TYPE":"U","MEAN_MOTION":14.79950435,"ECCENTRICITY":0.00004958,"INCLINATION":51.9045,"RA_OF_ASC_NODE":324.0696,"ARG_OF_PERICENTER":124.8016,"MEAN_ANOMALY":235.2993,"EPHEMERIS_TYPE":0,"NORAD_CAT_ID":67790,"ELEMENT_SET_NO":999,"REV_AT_EPOCH":2513,"BSTAR":0.000069966601,"MEAN_MOTION_DOT":0.00000313,"MEAN_MOTION_DDOT":0},{"OBJECT_NAME":"KUIPER-00270","OBJECT_ID":"2026-030AD","EPOCH":"2026-07-20T23:46:57.896832","CLASSIFICATION_TYPE":"U","MEAN_MOTION":14.79825078,"ECCENTRICITY":0.00008368,"INCLINATION":51.9003,"RA_OF_ASC_NODE":311.1679,"ARG_OF_PERICENTER":101.89,"MEAN_ANOMALY":258.2156,"EPHEMERIS_TYPE":0,"NORAD_CAT_ID":67791,"ELEMENT_SET_NO":999,"REV_AT_EPOCH":2537,"BSTAR":0.00030404095,"MEAN_MOTION_DOT":0.00002092,"MEAN_MOTION_DDOT":0},{"OBJECT_NAME":"KUIPER-00274","OBJECT_ID":"2026-030AE","EPOCH":"2026-07-21T02:26:19.224096","CLASSIFICATION_TYPE":"U","MEAN_MOTION":14.79939766,"ECCENTRICITY":0.00003688,"INCLINATION":51.904,"RA_OF_ASC_NODE":333.1741,"ARG_OF_PERICENTER":177.002,"MEAN_ANOMALY":183.0945,"EPHEMERIS_TYPE":0,"NORAD_CAT_ID":67792,"ELEMENT_SET_NO":999,"REV_AT_EPOCH":2507,"BSTAR":0.00032880703,"MEAN_MOTION_DOT":0.00002287,"MEAN_MOTION_DDOT":0},{"OBJECT_NAME":"KUIPER-00275","OBJECT_ID":"2026-030AF","EPOCH":"2026-07-20T07:30:28.306368","CLASSIFICATION_TYPE":"U","MEAN_MOTION":14.79940057,"ECCENTRICITY":0.00004398,"INCLINATION":51.9014,"RA_OF_ASC_NODE":316.6696,"ARG_OF_PERICENTER":142.9136,"MEAN_ANOMALY":217.1857,"EPHEMERIS_TYPE":0,"NORAD_CAT_ID":67793,"ELEMENT_SET_NO":999,"REV_AT_EPOCH":2523,"BSTAR":0.0002554636,"MEAN_MOTION_DOT":0.00001727,"MEAN_MOTION_DDOT":0},{"OBJECT_NAME":"KUIPER-00276","OBJECT_ID":"2026-030AG","EPOCH":"2026-07-20T08:11:17.286720","CLASSIFICATION_TYPE":"U","MEAN_MOTION":14.79947327,"ECCENTRICITY":0.00021884,"INCLINATION":51.9006,"RA_OF_ASC_NODE":321.527,"ARG_OF_PERICENTER":159.5268,"MEAN_ANOMALY":200.5782,"EPHEMERIS_TYPE":0,"NORAD_CAT_ID":67794,"ELEMENT_SET_NO":999,"REV_AT_EPOCH":2517,"BSTAR":0.00025610479,"MEAN_MOTION_DOT":0.00001732,"MEAN_MOTION_DDOT":0}]}
